IRIDIUM 116             
1 43072U 17083C   25243.25702606  .00000123  00000+0  36801-4 0  9996
2 43072  86.3908  83.2150 0002362  87.9456 272.2010 14.34217955402611
IRIDIUM 130             
1 43073U 17083D   25243.08577612  .00000112  00000+0  33061-4 0  9998
2 43073  86.3917  83.5342 0002403  93.6339 266.5131 14.34218016402538
IRIDIUM 151             
1 43074U 17083E   25243.26971190  .00000033  00000+0  47369-5 0  9997
2 43074  86.3907  83.2609 0002241  87.2393 272.9059 14.34217846402585
IRIDIUM 134             
1 43075U 17083F   25243.09846180  .00000080  00000+0  21360-4 0  9993
2 43075  86.3912  83.3367 0002315  93.3946 266.7515 14.34217801402521
IRIDIUM 137             
1 43076U 17083G   25243.11114880  .00000021  00000+0  46082-6 0  9997
2 43076  86.3909  83.4183 0002527  78.4320 281.7159 14.34217498402590
IRIDIUM 141             
1 43077U 17083H   25243.10480417  .00000105  00000+0  30403-4 0  9990
2 43077  86.3908  83.2679 0001978  86.9448 273.1975 14.34217939402593
IRIDIUM 153             
1 43078U 17083J   25243.19651996  .00000031  00000+0  41191-5 0  9997
2 43078  86.3933  51.6819 0001744  95.9199 264.2196 14.34217640403711
IRIDIUM 131             
1 43079U 17083K   25243.09211875  .00000016  00000+0 -13920-5 0  9998
2 43079  86.3911  83.4400 0001930  84.0796 276.0620 14.34217668402527
